{"type": "FeatureCollection", "features": [ {"type": "Feature", "properties": {"norad_id": 30716, "name": "FENGYUN 1C DEB", "group": "fengyun-1c-debris", "lat": -81.10979463815447, "lon": -87.87788105625773, "alt_km": 645.0379626721187, "timestamp": "2025-12-26T17:24:54.997621+00:00", "meta": {"OBJECT_NAME": "FENGYUN 1C DEB", "OBJECT_ID": "1999-025ASA", "EPOCH": "2025-12-25T00:18:46.259424", "MEAN_MOTION": 14.80011476, "ECCENTRICITY": 0.00206834, "INCLINATION": 98.8714, "RA_OF_ASC_NODE": 183.3469, "ARG_OF_PERICENTER": 43.1614, "MEAN_ANOMALY": 107.7886, "EPHEMERIS_TYPE": 0, "CLASSIFICATION_TYPE": "U", "NORAD_CAT_ID": 30716, "ELEMENT_SET_NO": 999, "REV_AT_EPOCH": 98005, "BSTAR": 0.003973683, "MEAN_MOTION_DOT": 0.0003024, "MEAN_MOTION_DDOT": 0}, "tle": {"line1": "1 30716U 99025ASA 25359.01303541  .00030240  00000+0  39737-2 0  9992", "line2": "2 30716  98.8714 183.3469 0020683  43.1614 107.7886 14.80011476980059"}}, "geometry": {"type": "Point", "coordinates": [-87.87788105625773, -81.10979463815447]}}, {"type": "Feature", "properties": {"norad_id": 30717, "name": "FENGYUN 1C DEB", "group": "fengyun-1c-debris", "lat": 14.299001929931404, "lon": 69.43569897796951, "alt_km": 856.5611199673704, "timestamp": "2025-12-26T17:24:54.997630+00:00", "meta": {"OBJECT_NAME": "FENGYUN 1C DEB", "OBJECT_ID": "1999-025ASB", "EPOCH": "2025-12-24T04:29:37.157568", "MEAN_MOTION": 14.20604613, "ECCENTRICITY": 0.00491208, "INCLINATION": 99.0161, "RA_OF_ASC_NODE": 69.1672, "ARG_OF_PERICENTER": 225.2588, "MEAN_ANOMALY": 134.4586, "EPHEMERIS_TYPE": 0, "CLASSIFICATION_TYPE": "U", "NORAD_CAT_ID": 30717, "ELEMENT_SET_NO": 999, "REV_AT_EPOCH": 96699, "BSTAR": 0.0014340874, "MEAN_MOTION_DOT": 3.078e-05, "MEAN_MOTION_DDOT": 0}, "tle": {"line1": "1 30717U 99025ASB 25358.18723562  .00003078  00000+0  14341-2 0  9992", "line2": "2 30717  99.0161  69.1672 0049120 225.2588 134.4586 14.20604613966992"}}, "geometry": {"type": "Point", "coordinates": [69.43569897796951, 14.299001929931404]}}, {"type": "Feature", "properties": {"norad_id": 30718, "name": "FENGYUN 1C DEB", "group": "fengyun-1c-debris", "lat": -78.97371082004744, "lon": 134.73286784086812, "alt_km": 856.118053244676, "timestamp": "2025-12-26T17:24:54.997640+00:00", "meta": {"OBJECT_NAME": "FENGYUN 1C DEB", "OBJECT_ID": "1999-025ASC", "EPOCH": "2025-12-23T22:22:37.269120", "MEAN_MOTION": 14.24423886, "ECCENTRICITY": 0.0057063, "INCLINATION": 98.8901, "RA_OF_ASC_NODE": 78.4653, "ARG_OF_PERICENTER": 124.9351, "MEAN_ANOMALY": 235.7206, "EPHEMERIS_TYPE": 0, "CLASSIFICATION_TYPE": "U", "NORAD_CAT_ID": 30718, "ELEMENT_SET_NO": 999, "REV_AT_EPOCH": 96933, "BSTAR": 0.0015071, "MEAN_MOTION_DOT": 3.504e-05, "MEAN_MOTION_DDOT": 0}, "tle": {"line1": "1 30718U 99025ASC 25357.93237580  .00003504  00000+0  15071-2 0  9990", "line2": "2 30718  98.8901  78.4653 0057063 124.9351 235.7206 14.24423886969332"}}, "geometry": {"type": "Point", "coordinates": [134.73286784086812, -78.97371082004744]}}, {"type": "Feature", "properties": {"norad_id": 30719, "name": "FENGYUN 1C DEB", "group": "fengyun-1c-debris", "lat": -62.75503929390906, "lon": -54.21533332357574, "alt_km": 701.0328492784347, "timestamp": "2025-12-26T17:24:54.997650+00:00", "meta": {"OBJECT_NAME": "FENGYUN 1C DEB", "OBJECT_ID": "1999-025ASD", "EPOCH": "2025-12-25T15:37:25.350240", "MEAN_MOTION": 14.59652737, "ECCENTRICITY": 0.0010392, "INCLINATION": 98.887, "RA_OF_ASC_NODE": 142.3241, "ARG_OF_PERICENTER": 159.5649, "MEAN_ANOMALY": 200.5967, "EPHEMERIS_TYPE": 0, "CLASSIFICATION_TYPE": "U", "NORAD_CAT_ID": 30719, "ELEMENT_SET_NO": 999, "REV_AT_EPOCH": 97637, "BSTAR": 0.0039033, "MEAN_MOTION_DOT": 0.00018599, "MEAN_MOTION_DDOT": 0}, "tle": {"line1": "1 30719U 99025ASD 25359.65098785  .00018599  00000+0  39033-2 0  9998", "line2": "2 30719  98.8870 142.3241 0010392 159.5649 200.5967 14.59652737976373"}}, "geometry": {"type": "Point", "coordinates": [-54.21533332357574, -62.75503929390906]}}, {"type": "Feature", "properties": {"norad_id": 30720, "name": "FENGYUN 1C DEB", "group": "fengyun-1c-debris", "lat": 6.302463802771833, "lon": -4.269087944267657, "alt_km": 806.2432761959408, "timestamp": "2025-12-26T17:24:54.997660+00:00", "meta": {"OBJECT_NAME": "FENGYUN 1C DEB", "OBJECT_ID": "1999-025ASE", "EPOCH": "2025-12-25T00:51:41.809248", "MEAN_MOTION": 14.29148234, "ECCENTRICITY": 0.00323657, "INCLINATION": 99.0359, "RA_OF_ASC_NODE": 172.9733, "ARG_OF_PERICENTER": 293.0313, "MEAN_ANOMALY": 192.1103, "EPHEMERIS_TYPE": 0, "CLASSIFICATION_TYPE": "U", "NORAD_CAT_ID": 30720, "ELEMENT_SET_NO": 999, "REV_AT_EPOCH": 97664, "BSTAR": 0.00041523035, "MEAN_MOTION_DOT": 1.012e-05, "MEAN_MOTION_DDOT": 0}, "tle": {"line1": "1 30720U 99025ASE 25359.03590057  .00001012  00000+0  41523-3 0  9991", "line2": "2 30720  99.0359 172.9733 0032365 293.0313 192.1103 14.29148234976648"}}, "geometry": {"type": "Point", "coordinates": [-4.269087944267657, 6.302463802771833]}}, {"type": "Feature", "properties": {"norad_id": 30721, "name": "FENGYUN 1C DEB", "group": "fengyun-1c-debris", "lat": 51.16489687673851, "lon": 122.03909210469186, "alt_km": 657.2327369933118, "timestamp": "2025-12-26T17:24:54.997670+00:00", "meta": {"OBJECT_NAME": "FENGYUN 1C DEB", "OBJECT_ID": "1999-025ASF", "EPOCH": "2025-12-26T07:29:36.800736", "MEAN_MOTION": 14.72412074, "ECCENTRICITY": 0.00285609, "INCLINATION": 98.7095, "RA_OF_ASC_NODE": 132.5737, "ARG_OF_PERICENTER": 297.7069, "MEAN_ANOMALY": 84.0228, "EPHEMERIS_TYPE": 0, "CLASSIFICATION_TYPE": "U", "NORAD_CAT_ID": 30721, "ELEMENT_SET_NO": 999, "REV_AT_EPOCH": 98042, "BSTAR": 0.0034752948, "MEAN_MOTION_DOT": 0.00022171, "MEAN_MOTION_DDOT": 0}, "tle": {"line1": "1 30721U 99025ASF 25360.31223149  .00022171  00000+0  34753-2 0  9995", "line2": "2 30721  98.7095 132.5737 0028560 297.7069  84.0228 14.72412074980421"}}, "geometry": {"type": "Point", "coordinates": [122.03909210469186, 51.16489687673851]}}, {"type": "Feature", "properties": {"norad_id": 30723, "name": "FENGYUN 1C DEB", "group": "fengyun-1c-debris", "lat": -1.4517724480800593, "lon": -92.99173661208398, "alt_km": 747.6219768335113, "timestamp": "2025-12-26T17:24:54.997680+00:00", "meta": {"OBJECT_NAME": "FENGYUN 1C DEB", "OBJECT_ID": "1999-025ASH", "EPOCH": "2025-12-26T05:10:17.155776", "MEAN_MOTION": 14.41518309, "ECCENTRICITY": 0.00164872, "INCLINATION": 98.8427, "RA_OF_ASC_NODE": 86.7065, "ARG_OF_PERICENTER": 223.2349, "MEAN_ANOMALY": 192.2877, "EPHEMERIS_TYPE": 0, "CLASSIFICATION_TYPE": "U", "NORAD_CAT_ID": 30723, "ELEMENT_SET_NO": 999, "REV_AT_EPOCH": 97565, "BSTAR": 0.0022172739, "MEAN_MOTION_DOT": 7.174e-05, "MEAN_MOTION_DDOT": 0}, "tle": {"line1": "1 30723U 99025ASH 25360.21547634  .00007174  00000+0  22173-2 0  9993", "line2": "2 30723  98.8427  86.7065 0016487 223.2349 192.2877 14.41518309975652"}}, "geometry": {"type": "Point", "coordinates": [-92.99173661208398, -1.4517724480800593]}}, {"type": "Feature", "properties": {"norad_id": 30724, "name": "FENGYUN 1C DEB", "group": "fengyun-1c-debris", "lat": -51.916137316796735, "lon": -5.537768570268875, "alt_km": 710.3787767609447, "timestamp": "2025-12-26T17:24:54.997690+00:00", "meta": {"OBJECT_NAME": "FENGYUN 1C DEB", "OBJECT_ID": "1999-025ASJ", "EPOCH": "2025-12-24T06:41:34.514880", "MEAN_MOTION": 14.37077528, "ECCENTRICITY": 0.00931299, "INCLINATION": 99.3156, "RA_OF_ASC_NODE": 183.9059, "ARG_OF_PERICENTER": 226.1302, "MEAN_ANOMALY": 315.2443, "EPHEMERIS_TYPE": 0, "CLASSIFICATION_TYPE": "U", "NORAD_CAT_ID": 30724, "ELEMENT_SET_NO": 999, "REV_AT_EPOCH": 98618, "BSTAR": 0.00042213285, "MEAN_MOTION_DOT": 1.264e-05, "MEAN_MOTION_DDOT": 0}, "tle": {"line1": "1 30724U 99025ASJ 25358.27887170  .00001264  00000+0  42213-3 0  9991", "line2": "2 30724  99.3156 183.9059 0093129 226.1302 315.2443 14.37077528986184"}}, "geometry": {"type": "Point", "coordinates": [-5.537768570268875, -51.916137316796735]}}, {"type": "Feature", "properties": {"norad_id": 30725, "name": "FENGYUN 1C DEB", "group": "fengyun-1c-debris", "lat": 55.55313744702042, "lon": 56.32968428942838, "alt_km": 807.6896694244006, "timestamp": "2025-12-26T17:24:54.997700+00:00", "meta": {"OBJECT_NAME": "FENGYUN 1C DEB", "OBJECT_ID": "1999-025ASK", "EPOCH": "2025-12-26T03:50:05.400672", "MEAN_MOTION": 14.16132006, "ECCENTRICITY": 0.00866645, "INCLINATION": 99.006, "RA_OF_ASC_NODE": 69.1261, "ARG_OF_PERICENTER": 351.8021, "MEAN_ANOMALY": 60.8081, "EPHEMERIS_TYPE": 0, "CLASSIFICATION_TYPE": "U", "NORAD_CAT_ID": 30725, "ELEMENT_SET_NO": 999, "REV_AT_EPOCH": 96538, "BSTAR": 0.0011347782, "MEAN_MOTION_DOT": 2.281e-05, "MEAN_MOTION_DDOT": 0}, "tle": {"line1": "1 30725U 99025ASK 25360.15978473  .00002281  00000+0  11348-2 0  9993", "line2": "2 30725  99.0060  69.1261 0086664 351.8021  60.8081 14.16132006965386"}}, "geometry": {"type": "Point", "coordinates": [56.32968428942838, 55.55313744702042]}}, {"type": "Feature", "properties": {"norad_id": 30726, "name": "FENGYUN 1C DEB", "group": "fengyun-1c-debris", "lat": 70.47175913363256, "lon": -149.71542984868609, "alt_km": 844.3314470265395, "timestamp": "2025-12-26T17:24:54.997710+00:00", "meta": {"OBJECT_NAME": "FENGYUN 1C DEB", "OBJECT_ID": "1999-025ASL", "EPOCH": "2025-12-26T00:13:21.868896", "MEAN_MOTION": 14.09349977, "ECCENTRICITY": 0.00784863, "INCLINATION": 99.2678, "RA_OF_ASC_NODE": 2.1366, "ARG_OF_PERICENTER": 189.1314, "MEAN_ANOMALY": 246.4287, "EPHEMERIS_TYPE": 0, "CLASSIFICATION_TYPE": "U", "NORAD_CAT_ID": 30726, "ELEMENT_SET_NO": 999, "REV_AT_EPOCH": 96170, "BSTAR": 0.0010256635, "MEAN_MOTION_DOT": 1.793e-05, "MEAN_MOTION_DDOT": 0}, "tle": {"line1": "1 30726U 99025ASL 25360.00928089  .00001793  00000+0  10257-2 0  9991", "line2": "2 30726  99.2678   2.1366 0078486 189.1314 246.4287 14.09349977961708"}}, "geometry": {"type": "Point", "coordinates": [-149.71542984868609, 70.47175913363256]}}]}